{"type": "FeatureCollection", "features": [ {"type": "Feature", "properties": {"norad_id": 30569, "name": "FENGYUN 1C DEB", "group": "fengyun-1c-debris", "lat": 30.600379495998677, "lon": 121.79189694880374, "alt_km": 644.7809269229492, "timestamp": "2025-12-13T22:39:29.987664+00:00", "meta": {"OBJECT_NAME": "FENGYUN 1C DEB", "OBJECT_ID": "1999-025ALK", "EPOCH": "2025-12-13T07:51:10.822176", "MEAN_MOTION": 14.73724999, "ECCENTRICITY": 0.00059643, "INCLINATION": 98.7362, "RA_OF_ASC_NODE": 126.3457, "ARG_OF_PERICENTER": 84.0254, "MEAN_ANOMALY": 276.1631, "EPHEMERIS_TYPE": 0, "CLASSIFICATION_TYPE": "U", "NORAD_CAT_ID": 30569, "ELEMENT_SET_NO": 999, "REV_AT_EPOCH": 98215, "BSTAR": 0.0057899467, "MEAN_MOTION_DOT": 0.00037974, "MEAN_MOTION_DDOT": 0}, "tle": {"line1": "1 30569U 99025ALK 25347.32720859  .00037974  00000+0  57899-2 0  9994", "line2": "2 30569  98.7362 126.3457 0005964  84.0254 276.1631 14.73724999982151"}}, "geometry": {"type": "Point", "coordinates": [121.79189694880374, 30.600379495998677]}}, {"type": "Feature", "properties": {"norad_id": 30570, "name": "FENGYUN 1C DEB", "group": "fengyun-1c-debris", "lat": 8.899372435903555, "lon": 19.058826262452108, "alt_km": 870.5095481454355, "timestamp": "2025-12-13T22:39:29.987675+00:00", "meta": {"OBJECT_NAME": "FENGYUN 1C DEB", "OBJECT_ID": "1999-025ALL", "EPOCH": "2025-12-13T02:32:37.624992", "MEAN_MOTION": 14.14269224, "ECCENTRICITY": 0.00352771, "INCLINATION": 98.7152, "RA_OF_ASC_NODE": 19.6176, "ARG_OF_PERICENTER": 210.8181, "MEAN_ANOMALY": 213.4466, "EPHEMERIS_TYPE": 0, "CLASSIFICATION_TYPE": "U", "NORAD_CAT_ID": 30570, "ELEMENT_SET_NO": 999, "REV_AT_EPOCH": 97003, "BSTAR": 0.00066134459, "MEAN_MOTION_DOT": 1.227e-05, "MEAN_MOTION_DDOT": 0}, "tle": {"line1": "1 30570U 99025ALL 25347.10599103  .00001227  00000+0  66134-3 0  9993", "line2": "2 30570  98.7152  19.6176 0035277 210.8181 213.4466 14.14269224970034"}}, "geometry": {"type": "Point", "coordinates": [19.058826262452108, 8.899372435903555]}}, {"type": "Feature", "properties": {"norad_id": 30571, "name": "FENGYUN 1C DEB", "group": "fengyun-1c-debris", "lat": -68.14567722141105, "lon": 36.65350077948299, "alt_km": 856.5848771319452, "timestamp": "2025-12-13T22:39:29.987685+00:00", "meta": {"OBJECT_NAME": "FENGYUN 1C DEB", "OBJECT_ID": "1999-025ALM", "EPOCH": "2025-12-13T01:07:06.583008", "MEAN_MOTION": 14.10695813, "ECCENTRICITY": 0.00208118, "INCLINATION": 98.7313, "RA_OF_ASC_NODE": 13.2516, "ARG_OF_PERICENTER": 233.0481, "MEAN_ANOMALY": 181.5205, "EPHEMERIS_TYPE": 0, "CLASSIFICATION_TYPE": "U", "NORAD_CAT_ID": 30571, "ELEMENT_SET_NO": 999, "REV_AT_EPOCH": 96891, "BSTAR": 0.00034704194, "MEAN_MOTION_DOT": 5.78e-06, "MEAN_MOTION_DDOT": 0}, "tle": {"line1": "1 30571U 99025ALM 25347.04660397  .00000578  00000+0  34704-3 0  9997", "line2": "2 30571  98.7313  13.2516 0020811 233.0481 181.5205 14.10695813968913"}}, "geometry": {"type": "Point", "coordinates": [36.65350077948299, -68.14567722141105]}}, {"type": "Feature", "properties": {"norad_id": 30572, "name": "FENGYUN 1C DEB", "group": "fengyun-1c-debris", "lat": -8.390136202776063, "lon": -163.77009769248875, "alt_km": 870.0756661302867, "timestamp": "2025-12-13T22:39:29.987695+00:00", "meta": {"OBJECT_NAME": "FENGYUN 1C DEB", "OBJECT_ID": "1999-025ALN", "EPOCH": "2025-12-13T08:14:01.807008", "MEAN_MOTION": 14.08922304, "ECCENTRICITY": 0.00211305, "INCLINATION": 98.7722, "RA_OF_ASC_NODE": 16.95, "ARG_OF_PERICENTER": 291.8434, "MEAN_ANOMALY": 90.0137, "EPHEMERIS_TYPE": 0, "CLASSIFICATION_TYPE": "U", "NORAD_CAT_ID": 30572, "ELEMENT_SET_NO": 999, "REV_AT_EPOCH": 96770, "BSTAR": 0.00035142253, "MEAN_MOTION_DOT": 5.66e-06, "MEAN_MOTION_DDOT": 0}, "tle": {"line1": "1 30572U 99025ALN 25347.34307647  .00000566  00000+0  35142-3 0  9991", "line2": "2 30572  98.7722  16.9500 0021130 291.8434  90.0137 14.08922304967705"}}, "geometry": {"type": "Point", "coordinates": [-163.77009769248875, -8.390136202776063]}}, {"type": "Feature", "properties": {"norad_id": 30573, "name": "FENGYUN 1C DEB", "group": "fengyun-1c-debris", "lat": 40.78614371762067, "lon": -146.21971081868367, "alt_km": 885.2609514766846, "timestamp": "2025-12-13T22:39:29.987705+00:00", "meta": {"OBJECT_NAME": "FENGYUN 1C DEB", "OBJECT_ID": "1999-025ALP", "EPOCH": "2025-12-13T01:45:09.576864", "MEAN_MOTION": 14.13841276, "ECCENTRICITY": 0.00883445, "INCLINATION": 99.2271, "RA_OF_ASC_NODE": 24.8197, "ARG_OF_PERICENTER": 272.8422, "MEAN_ANOMALY": 115.2316, "EPHEMERIS_TYPE": 0, "CLASSIFICATION_TYPE": "U", "NORAD_CAT_ID": 30573, "ELEMENT_SET_NO": 999, "REV_AT_EPOCH": 96202, "BSTAR": 0.0024882862, "MEAN_MOTION_DOT": 4.847e-05, "MEAN_MOTION_DDOT": 0}, "tle": {"line1": "1 30573U 99025ALP 25347.07302751  .00004847  00000+0  24883-2 0  9998", "line2": "2 30573  99.2271  24.8197 0088344 272.8422 115.2316 14.13841276962020"}}, "geometry": {"type": "Point", "coordinates": [-146.21971081868367, 40.78614371762067]}}, {"type": "Feature", "properties": {"norad_id": 30574, "name": "FENGYUN 1C DEB", "group": "fengyun-1c-debris", "lat": -80.34590864803285, "lon": -134.02691653022433, "alt_km": 926.2849873118621, "timestamp": "2025-12-13T22:39:29.987716+00:00", "meta": {"OBJECT_NAME": "FENGYUN 1C DEB", "OBJECT_ID": "1999-025ALQ", "EPOCH": "2025-12-11T10:03:26.289792", "MEAN_MOTION": 13.77512791, "ECCENTRICITY": 0.0219325, "INCLINATION": 99.302, "RA_OF_ASC_NODE": 149.0367, "ARG_OF_PERICENTER": 350.9796, "MEAN_ANOMALY": 8.7444, "EPHEMERIS_TYPE": 0, "CLASSIFICATION_TYPE": "U", "NORAD_CAT_ID": 30574, "ELEMENT_SET_NO": 999, "REV_AT_EPOCH": 93750, "BSTAR": 0.0031904769, "MEAN_MOTION_DOT": 3.752e-05, "MEAN_MOTION_DDOT": 0}, "tle": {"line1": "1 30574U 99025ALQ 25345.41905428  .00003752  00000+0  31905-2 0  9992", "line2": "2 30574  99.3020 149.0367 0219325 350.9796   8.7444 13.77512791937509"}}, "geometry": {"type": "Point", "coordinates": [-134.02691653022433, -80.34590864803285]}}, {"type": "Feature", "properties": {"norad_id": 30575, "name": "FENGYUN 1C DEB", "group": "fengyun-1c-debris", "lat": -36.34925894882982, "lon": 85.7732614555788, "alt_km": 764.4465200729464, "timestamp": "2025-12-13T22:39:29.987726+00:00", "meta": {"OBJECT_NAME": "FENGYUN 1C DEB", "OBJECT_ID": "1999-025ALR", "EPOCH": "2025-12-13T04:45:31.810176", "MEAN_MOTION": 14.40068331, "ECCENTRICITY": 0.00541621, "INCLINATION": 99.1694, "RA_OF_ASC_NODE": 78.1487, "ARG_OF_PERICENTER": 235.1999, "MEAN_ANOMALY": 183.0873, "EPHEMERIS_TYPE": 0, "CLASSIFICATION_TYPE": "U", "NORAD_CAT_ID": 30575, "ELEMENT_SET_NO": 999, "REV_AT_EPOCH": 98224, "BSTAR": 0.0015867606, "MEAN_MOTION_DOT": 5.045e-05, "MEAN_MOTION_DDOT": 0}, "tle": {"line1": "1 30575U 99025ALR 25347.19828484  .00005045  00000+0  15868-2 0  9993", "line2": "2 30575  99.1694  78.1487 0054162 235.1999 183.0873 14.40068331982246"}}, "geometry": {"type": "Point", "coordinates": [85.7732614555788, -36.34925894882982]}}, {"type": "Feature", "properties": {"norad_id": 30577, "name": "FENGYUN 1C DEB", "group": "fengyun-1c-debris", "lat": -67.22088610136811, "lon": -179.72319078791298, "alt_km": 844.7087660955522, "timestamp": "2025-12-13T22:39:29.987736+00:00", "meta": {"OBJECT_NAME": "FENGYUN 1C DEB", "OBJECT_ID": "1999-025ALT", "EPOCH": "2025-12-12T20:48:47.342304", "MEAN_MOTION": 14.11144371, "ECCENTRICITY": 0.00286134, "INCLINATION": 98.7706, "RA_OF_ASC_NODE": 20.7948, "ARG_OF_PERICENTER": 281.8155, "MEAN_ANOMALY": 259.5515, "EPHEMERIS_TYPE": 0, "CLASSIFICATION_TYPE": "U", "NORAD_CAT_ID": 30577, "ELEMENT_SET_NO": 999, "REV_AT_EPOCH": 96786, "BSTAR": 0.00071157992, "MEAN_MOTION_DOT": 1.243e-05, "MEAN_MOTION_DDOT": 0}, "tle": {"line1": "1 30577U 99025ALT 25346.86721461  .00001243  00000+0  71158-3 0  9996", "line2": "2 30577  98.7706  20.7948 0028613 281.8155 259.5515 14.11144371967866"}}, "geometry": {"type": "Point", "coordinates": [-179.72319078791298, -67.22088610136811]}}, {"type": "Feature", "properties": {"norad_id": 30579, "name": "FENGYUN 1C DEB", "group": "fengyun-1c-debris", "lat": 67.08219504010115, "lon": -8.927538479768993, "alt_km": 835.7959541118562, "timestamp": "2025-12-13T22:39:29.987746+00:00", "meta": {"OBJECT_NAME": "FENGYUN 1C DEB", "OBJECT_ID": "1999-025ALV", "EPOCH": "2025-12-12T19:48:51.566976", "MEAN_MOTION": 14.05250205, "ECCENTRICITY": 0.00536954, "INCLINATION": 98.807, "RA_OF_ASC_NODE": 11.498, "ARG_OF_PERICENTER": 103.3635, "MEAN_ANOMALY": 70.5032, "EPHEMERIS_TYPE": 0, "CLASSIFICATION_TYPE": "U", "NORAD_CAT_ID": 30579, "ELEMENT_SET_NO": 999, "REV_AT_EPOCH": 96458, "BSTAR": 0.00062123576, "MEAN_MOTION_DOT": 9.75e-06, "MEAN_MOTION_DDOT": 0}, "tle": {"line1": "1 30579U 99025ALV 25346.82559684  .00000975  00000+0  62124-3 0  9994", "line2": "2 30579  98.8070  11.4980 0053695 103.3635  70.5032 14.05250205964583"}}, "geometry": {"type": "Point", "coordinates": [-8.927538479768993, 67.08219504010115]}}, {"type": "Feature", "properties": {"norad_id": 30594, "name": "FENGYUN 1C DEB", "group": "fengyun-1c-debris", "lat": 39.673378193050546, "lon": -163.52094928635515, "alt_km": 822.2484226323313, "timestamp": "2025-12-13T22:39:29.987756+00:00", "meta": {"OBJECT_NAME": "FENGYUN 1C DEB", "OBJECT_ID": "1999-025ALZ", "EPOCH": "2025-12-12T21:03:29.990016", "MEAN_MOTION": 14.1734067, "ECCENTRICITY": 0.01933958, "INCLINATION": 99.1512, "RA_OF_ASC_NODE": 203.064, "ARG_OF_PERICENTER": 315.9788, "MEAN_ANOMALY": 42.6122, "EPHEMERIS_TYPE": 0, "CLASSIFICATION_TYPE": "U", "NORAD_CAT_ID": 30594, "ELEMENT_SET_NO": 999, "REV_AT_EPOCH": 97581, "BSTAR": 0.00027871131, "MEAN_MOTION_DOT": 6.27e-06, "MEAN_MOTION_DDOT": 0}, "tle": {"line1": "1 30594U 99025ALZ 25346.87743044  .00000627  00000+0  27871-3 0  9995", "line2": "2 30594  99.1512 203.0640 0193395 315.9788  42.6122 14.17340670975816"}}, "geometry": {"type": "Point", "coordinates": [-163.52094928635515, 39.673378193050546]}}]}